NORAD_CAT_ID,OBJECT_NAME,OBJECT_TYPE,EPOCH,MEAN_MOTION,ECCENTRICITY,INCLINATION,RA_OF_ASC_NODE,ARG_OF_PERICENTER,MEAN_ANOMALY,BSTAR,MEAN_MOTION_DOT,MEAN_MOTION_DDOT,TLE_LINE0,TLE_LINE1,TLE_LINE2,SEMIMAJOR_AXIS,PERIOD,APOGEE,PERIGEE,DECAYED
53000.0,STARLINK-4194,PAYLOAD,2024-04-24 11:53:45,15.08854421,0.0001417,53.2177,285.5867,94.0312,266.0843,0.00020711,3.011e-05,0.0,0 STARLINK-4194,1 53000U 22076Q   24115.49567115  .00003011  00000-0  20711-3 0  9995,2 53000  53.2177 285.5867 0001417  94.0312 266.0843 15.08854421 99553,6917.836,95.437,540.682,538.721,0.0
53000.0,STARLINK-4194,PAYLOAD,2024-04-24 16:39:55,15.0885151,0.0001398,53.2179,284.6934,112.0111,248.103,0.00014875,2.081e-05,0.0,0 STARLINK-4194,1 53000U 22076Q   24115.69439153  .00002081  00000-0  14875-3 0  9997,2 53000  53.2179 284.6934 0001398 112.0111 248.1030 15.08851510100059,6917.845,95.437,540.677,538.743,0.0
53000.0,STARLINK-4194,PAYLOAD,2024-04-25 14:55:20,15.08830143,0.0001514,53.2175,280.5318,126.3359,233.7774,-7.1109e-06,-4.01e-06,0.0,0 STARLINK-4194,1 53000U 22076Q   24116.62176978 -.00000401  00000-0 -71109-5 0  9995,2 53000  53.2175 280.5318 0001514 126.3359 233.7774 15.08830143 99723,6917.911,95.438,540.823,538.728,0.0
53000.0,STARLINK-4194,PAYLOAD,2024-04-25 16:30:44,15.08826839,9.7e-05,53.2171,280.2348,107.5832,252.5266,-1.8653e-05,-5.84e-06,0.0,0 STARLINK-4194,1 53000U 22076Q   24116.68801289 -.00000584  00000-0 -18653-4 0  9997,2 53000  53.2171 280.2348 0000970 107.5832 252.5266 15.08826839100209,6917.921,95.438,540.457,539.115,0.0
53000.0,STARLINK-4194,PAYLOAD,2024-04-25 21:16:54,15.08823724,0.0001016,53.2172,279.3493,104.0766,256.0339,-1.1544e-05,-4.71e-06,0.0,0 STARLINK-4194,1 53000U 22076Q   24116.88673762 -.00000471  00000-0 -11544-4 0  9999,2 53000  53.2172 279.3493 0001016 104.0766 256.0339 15.08823724 99768,6917.93,95.439,540.498,539.092,0.0
53000.0,STARLINK-4194,PAYLOAD,2024-04-26 14:46:08,15.08827473,9.83e-05,53.2174,276.0788,101.5288,258.5815,-8.4742e-05,-1.636e-05,0.0,0 STARLINK-4194,1 53000U 22076Q   24117.61537922 -.00001636  00000-0 -84742-4 0  9992,2 53000  53.2174 276.0788 0000983 101.5288 258.5815 15.08827473 99877,6917.919,95.438,540.464,539.104,0.0
53000.0,STARLINK-4194,PAYLOAD,2024-04-26 16:21:31,15.08834717,0.0001414,53.2174,275.7721,83.5498,276.5655,-5.316e-05,-1.134e-05,0.0,0 STARLINK-4194,1 53000U 22076Q   24117.68161391 -.00001134  00000-0 -53160-4 0  9995,2 53000  53.2174 275.7721 0001414  83.5498 276.5655 15.08834717100359,6917.897,95.438,540.74,538.783,0.0
53000.0,STARLINK-4194,PAYLOAD,2024-04-27 03:29:12,15.08847831,0.0001175,53.2176,273.6915,111.5522,248.5596,0.00020225,2.933e-05,0.0,0 STARLINK-4194,1 53000U 22076Q   24118.14527784  .00002933  00000-0  20225-3 0  9990,2 53000  53.2176 273.6915 0001175 111.5522 248.5596 15.08847831100429,6917.856,95.437,540.534,538.909,0.0
53000.0,STARLINK-4194,PAYLOAD,2024-04-27 09:50:45,15.08834829,0.0001857,53.2162,272.509,88.4322,271.6883,0.00021464,3.129e-05,0.0,0 STARLINK-4194,1 53000U 22076Q   24118.41024971  .00003129  00000-0  21464-3 0  9994,2 53000  53.2162 272.5090 0001857  88.4322 271.6883 15.08834829100466,6917.896,95.438,541.046,538.477,0.0
53000.0,STARLINK-4194,PAYLOAD,2024-04-27 14:36:56,15.0881709,0.0001102,53.2162,271.6138,80.857,279.2547,5.7247e-05,6.23e-06,0.0,0 STARLINK-4194,1 53000U 22076Q   24118.60898601  .00000623  00000-0  57247-4 0  9999,2 53000  53.2162 271.6138 0001102  80.8570 279.2547 15.08817090100027,6917.95,95.439,540.578,539.053,0.0
53000.0,STARLINK-4194,PAYLOAD,2024-04-27 17:47:42,15.08815669,0.0001182,53.2171,271.0188,101.1076,259.0049,9.2943e-05,1.191e-05,0.0,0 STARLINK-4194,1 53000U 22076Q   24118.74146734  .00001191  00000-0  92943-4 0  9990,2 53000  53.2171 271.0188 0001182 101.1076 259.0049 15.08815669100519,6917.955,95.439,540.637,539.002,0.0
53000.0,STARLINK-4194,PAYLOAD,2024-04-28 03:20:00,15.08840633,0.0001245,53.2174,269.234,49.749,310.3611,0.00019623,2.837e-05,0.0,0 STARLINK-4194,1 53000U 22076Q   24119.13889111  .00002837  00000-0  19623-3 0  9998,2 53000  53.2174 269.2340 0001245  49.7490 310.3611 15.08840633100579,6917.878,95.438,540.605,538.882,0.0
53000.0,STARLINK-4194,PAYLOAD,2024-04-28 09:41:34,15.08823547,0.0001469,53.2173,268.0438,67.0006,293.1141,9.5879e-06,-1.35e-06,0.0,0 STARLINK-4194,1 53000U 22076Q   24119.40386965 -.00000135  00000-0  95879-5 0  9996,2 53000  53.2173 268.0438 0001469  67.0006 293.1141 15.08823547100613,6917.931,95.439,540.812,538.779,0.0
53000.0,STARLINK-4194,PAYLOAD,2024-04-28 14:27:42,15.08842921,0.0001826,53.2165,267.1495,94.0723,266.0478,-5.0088e-05,-1.085e-05,0.0,0 STARLINK-4194,1 53000U 22076Q   24119.60258099 -.00001085  00000-0 -50088-4 0  9992,2 53000  53.2165 267.1495 0001826  94.0723 266.0478 15.08842921100170,6917.871,95.437,541.0,538.473,0.0
53000.0,STARLINK-4194,PAYLOAD,2024-04-28 16:03:06,15.08835866,8.97e-05,53.2172,266.8528,94.9912,265.1183,-0.00011115,-2.056e-05,0.0,0 STARLINK-4194,1 53000U 22076Q   24119.66882511 -.00002056  00000-0 -11115-3 0  9996,2 53000  53.2172 266.8528 0000897  94.9912 265.1183 15.08835866100653,6917.893,95.438,540.379,539.137,0.0
53000.0,STARLINK-4194,PAYLOAD,2024-04-29 03:10:47,15.08847285,0.0001217,53.2163,264.771,97.3631,262.75,-2.7062e-05,-7.19e-06,0.0,0 STARLINK-4194,1 53000U 22076Q   24120.13249462 -.00000719  00000-0 -27062-4 0  9995,2 53000  53.2163 264.7710 0001217  97.3631 262.7500 15.08847285100727,6917.858,95.437,540.565,538.881,0.0
53000.0,STARLINK-4194,PAYLOAD,2024-04-29 14:18:30,15.08822052,0.0001104,53.2171,262.6886,113.0688,247.0421,0.00022365,3.272e-05,0.0,0 STARLINK-4194,1 53000U 22076Q   24120.59618384  .00003272  00000-0  22365-3 0  9993,2 53000  53.2171 262.6886 0001104 113.0688 247.0421 15.08822052100329,6917.935,95.439,540.564,539.037,0.0
53000.0,STARLINK-4194,PAYLOAD,2024-04-29 19:04:39,15.08838754,0.0001557,53.2191,261.7962,126.8709,233.2426,5.9936e-05,6.66e-06,0.0,0 STARLINK-4194,1 53000U 22076Q   24120.79489863  .00000666  00000-0  59936-4 0  9992,2 53000  53.2191 261.7962 0001557 126.8709 233.2426 15.08838754100827,6917.884,95.438,540.826,538.672,0.0
53000.0,STARLINK-4194,PAYLOAD,2024-04-30 14:09:17,15.08827077,0.0001011,53.2199,258.2293,103.0864,257.0241,0.00018143,2.6e-05,0.0,0 STARLINK-4194,1 53000U 22076Q   24121.58978393  .00002600  00000-0  18143-3 0  9995,2 53000  53.2199 258.2293 0001011 103.0864 257.0241 15.08827077100473,6917.92,95.438,540.484,539.085,0.0
53000.0,STARLINK-4194,PAYLOAD,2024-04-30 15:44:40,15.08838385,0.0001248,53.2196,257.9326,99.5457,260.5677,2.3095e-05,8e-07,0.0,0 STARLINK-4194,1 53000U 22076Q   24121.65602159  .00000080  00000-0  23095-4 0  9990,2 53000  53.2196 257.9326 0001248  99.5457 260.5677 15.08838385100489,6917.885,95.438,540.614,538.887,0.0
53000.0,STARLINK-4194,PAYLOAD,2024-05-01 09:13:54,15.08838744,0.0001009,53.2192,254.6635,94.2435,265.8672,0.0001203,1.627e-05,0.0,0 STARLINK-4194,1 53000U 22076Q   24122.38465686  .00001627  00000-0  12030-3 0  9997,2 53000  53.2192 254.6635 0001009  94.2435 265.8672 15.08838744101062,6917.884,95.438,540.447,539.051,0.0
53000.0,STARLINK-4194,PAYLOAD,2024-05-01 15:35:26,15.08839763,0.00011,53.2187,253.4765,82.1749,277.9368,0.00011766,1.585e-05,0.0,0 STARLINK-4194,1 53000U 22076Q   24122.64961672  .00001585  00000-0  11766-3 0  9990,2 53000  53.2187 253.4765 0001100  82.1749 277.9368 15.08839763100633,6917.881,95.438,540.507,538.985,0.0
53000.0,STARLINK-4194,PAYLOAD,2024-05-02 01:07:44,15.08854972,0.0001063,53.219,251.6916,85.2704,274.8409,7.8965e-05,9.7e-06,0.0,0 STARLINK-4194,1 53000U 22076Q   24123.04704589  .00000970  00000-0  78965-4 0  9999,2 53000  53.2190 251.6916 0001063  85.2704 274.8409 15.08854972101168,6917.835,95.437,540.435,538.964,0.0
53000.0,STARLINK-4194,PAYLOAD,2024-05-02 12:15:28,15.08823448,0.0001559,53.219,249.6118,104.7584,255.3581,-1.1435e-05,-4.7e-06,0.0,0 STARLINK-4194,1 53000U 22076Q   24123.51074854 -.00000470  00000-0 -11435-4 0  9992,2 53000  53.2190 249.6118 0001559 104.7584 255.3581 15.08823448101239,6917.931,95.439,540.874,538.717,0.0
53000.0,STARLINK-4194,PAYLOAD,2024-05-02 13:50:51,15.08821929,0.0001507,53.2185,249.3143,104.6221,255.4938,-2.4684e-05,-6.81e-06,0.0,0 STARLINK-4194,1 53000U 22076Q   24123.57699039 -.00000681  00000-0 -24684-4 0  9990,2 53000  53.2185 249.3143 0001507 104.6221 255.4938 15.08821929100775,6917.936,95.439,540.843,538.758,0.0
53000.0,STARLINK-4194,PAYLOAD,2024-05-03 00:58:33,15.08840835,0.000127,53.2173,247.2296,96.8531,263.2606,2.2593e-05,7.2e-07,0.0,0 STARLINK-4194,1 53000U 22076Q   24124.04065976  .00000072  00000-0  22593-4 0  9999,2 53000  53.2173 247.2296 0001270  96.8531 263.2606 15.08840835101318,6917.878,95.438,540.621,538.864,0.0
53000.0,STARLINK-4194,PAYLOAD,2024-05-03 13:41:37,15.08843812,0.0001565,53.2179,244.8492,90.24,269.8771,6.656e-06,-1.82e-06,0.0,0 STARLINK-4194,1 53000U 22076Q   24124.57057826 -.00000182  00000-0  66560-5 0  9998,2 53000  53.2179 244.8492 0001565  90.2400 269.8771 15.08843812100924,6917.869,95.437,540.816,538.651,0.0
53000.0,STARLINK-4194,PAYLOAD,2024-05-03 15:17:00,15.08845865,0.0001566,53.2185,244.5525,91.4293,268.6878,2.556e-05,1.19e-06,0.0,0 STARLINK-4194,1 53000U 22076Q   24124.63681629  .00000119  00000-0  25560-4 0  9992,2 53000  53.2185 244.5525 0001566  91.4293 268.6878 15.08845865100935,6917.862,95.437,540.811,538.644,0.0
53000.0,STARLINK-4194,PAYLOAD,2024-05-04 00:49:19,15.08845887,0.000204,53.2191,242.7694,96.4132,263.7093,0.00012089,1.637e-05,0.0,0 STARLINK-4194,1 53000U 22076Q   24125.03425232  .00001637  00000-0  12089-3 0  9990,2 53000  53.2191 242.7694 0002040  96.4132 263.7093 15.08845887101462,6917.862,95.437,541.139,538.316,0.0
53000.0,STARLINK-4194,PAYLOAD,2024-05-04 13:32:26,15.08819479,0.0001293,53.2172,240.3913,102.8134,257.3003,5.0076e-06,-2.08e-06,0.0,0 STARLINK-4194,1 53000U 22076Q   24125.56419492 -.00000208  00000-0  50076-5 0  9993,2 53000  53.2172 240.3913 0001293 102.8134 257.3003 15.08819479101549,6917.943,95.439,540.703,538.914,0.0
